OBJECT_NAME,OBJECT_ID,EPOCH,MEAN_MOTION,ECCENTRICITY,INCLINATION,RA_OF_ASC_NODE,ARG_OF_PERICENTER,MEAN_ANOMALY,EPHEMERIS_TYPE,CLASSIFICATION_TYPE,NORAD_CAT_ID,ELEMENT_SET_NO,REV_AT_EPOCH,BSTAR,MEAN_MOTION_DOT,MEAN_MOTION_DDOT
H-2A R/B,2006-002B,2026-06-25T10:12:41.001120,15.18160941,.00497683,98.2568,333.0008,233.6316,126.0318,0,U,28932,999,11077,.40752151E-3,.8517E-4,0
RESURS-DK 1,2006-021A,2026-06-25T13:30:08.601984,15.13248953,.00067554,69.9338,317.8730,287.9158,72.1271,0,U,29228,999,10384,.13686215E-3,.2331E-4,0
CZ-4B R/B,2006-046C,2026-06-25T13:25:47.241984,15.17839411,.00310272,97.5452,221.1407,252.1488,107.6361,0,U,29507,999,7640,.20998147E-3,.4231E-4,0
CZ-2C R/B,2007-010B,2026-06-25T07:15:26.310240,14.20277819,.0058524,98.4104,284.2566,342.4914,17.4245,0,U,31114,999,99499,.47183052E-4,.61E-6,0
COSMO-SKYMED 1,2007-023A,2026-06-25T13:21:12.096000,14.97143148,.00018356,97.8861,8.4825,91.8658,268.2774,0,U,31598,999,3104,.28635264E-3,.3247E-4,0
COSMOS 2428,2007-029A,2026-06-25T13:38:30.597216,14.12927683,.00071338,70.9371,336.8791,118.8785,241.3053,0,U,31792,999,97933,.13206651E-4,-.23E-6,0
SL-16 R/B,2007-029B,2026-06-25T14:19:47.021664,14.14855159,.0002447,70.9772,305.5494,263.4243,176.3405,0,U,31793,999,98063,-.71778554E-4,-.186E-5,0
KORONAS-FOTON,2009-003A,2026-06-25T11:51:12.284352,15.45880946,.00123903,82.4286,163.5929,121.5165,238.7296,0,U,33504,999,96238,.2822133E-3,.1379E-3,0
CZ-2C R/B,2011-030B,2026-06-25T10:13:17.309856,14.81490093,.0052334,97.8657,131.6633,1.4592,111.9802,0,U,37731,999,80604,.15713741E-3,.1205E-4,0
H-2A R/B,2012-025E,2026-06-25T12:27:26.367552,14.95752909,.0043169,98.4823,152.3514,321.1468,38.6650,0,U,38341,999,76433,.23151665E-3,.2557E-4,0
SHIJIAN-16 (SJ-16),2013-057A,2026-06-25T14:49:36.286176,14.92617010,.0016586,74.9732,340.7149,211.1454,148.8753,0,U,39358,999,68760,.76071187E-4,.755E-5,0
SL-4 R/B,2014-021B,2026-06-25T11:43:46.026624,15.42105744,.00908421,51.6034,170.0969,136.1973,224.6264,0,U,39679,999,67289,.23172211E-3,.1125E-3,0
ALOS-2,2014-029A,2026-06-25T14:14:18.991968,14.79468636,.00016226,97.9220,273.6368,90.4924,269.6474,0,U,39766,999,65282,.7075275E-4,.477E-5,0
YAOGAN-29,2015-069A,2026-06-25T14:40:16.808160,14.83089731,.00022082,98.0029,205.2575,40.1015,320.0361,0,U,41038,999,57187,.1074891E-5,-.45E-6,0
ASTRO-H (HITOMI),2016-012A,2026-06-24T23:07:55.719840,15.10541885,.00097404,31.0000,23.9627,331.2378,28.7723,0,U,41337,999,56846,.13225518E-3,.2333E-4,0
HXMT (HUIYAN),2017-034A,2026-06-25T08:33:25.541568,15.18523714,.00318159,43.0127,137.5487,199.1754,160.7899,0,U,42758,999,49890,.21864075E-3,.4412E-4,0
SAOCOM 1A,2018-076A,2026-06-25T13:47:49.180992,14.82153374,.00015684,97.8888,3.2016,80.9417,279.1973,0,U,43641,999,41734,.15801352E-4,.74E-6,0
H-2A R/B,2018-084L,2026-06-25T13:06:26.910720,15.45460413,.00225366,98.8575,57.2640,12.0129,348.1648,0,U,43682,999,42241,.53890305E-3,.25995E-3,0
SAOCOM 1B,2020-059A,2026-06-25T14:32:41.847360,14.82151534,.00016059,97.8891,2.3275,84.1674,275.9722,0,U,46265,999,31473,.6332304E-4,.452E-5,0
CSS (TIANHE),2021-035A,2026-06-25T13:12:19.946304,15.61164628,.00078417,41.4688,271.0950,148.6919,211.4388,0,U,48274,999,29447,.33184732E-3,.28666E-3,0
COSMOS 2550,2021-056A,2026-06-25T13:35:25.708992,15.33844795,.00084082,67.1437,74.5598,268.5199,91.4992,0,U,48865,999,28000,.18951567E-3,.6051E-4,0
CZ-2C R/B,2022-058K,2026-06-25T13:23:18.761856,15.62416323,.00319663,50.1847,119.9442,302.2412,57.5465,0,U,52794,999,22695,.48844244E-3,.45105E-3,0
CZ-2C R/B,2022-132E,2026-06-25T13:19:31.948032,15.72498432,.00144653,97.2895,183.9577,57.6860,302.5802,0,U,54039,999,20726,.57779317E-3,.77865E-3,0
GSLV R/B,2022-138AN,2026-06-25T09:43:21.800352,14.97290730,.00238354,87.3806,130.2243,116.2977,244.0707,0,U,54149,999,20004,.2659578E-3,.3128E-4,0
XRISM,2023-137A,2026-06-25T12:08:25.131552,15.12532699,.00077963,31.0027,305.7147,47.4275,312.7021,0,U,57800,999,15412,.27564996E-3,.5024E-4,0
ACS3,2024-077B,2026-06-25T12:42:30.593664,13.94556394,.00926284,97.1683,93.4609,57.9988,303.0139,0,U,59588,999,10920,.12914588E-1,.1788E-3,0
CZ-8A R/B,2025-231K,2026-06-25T12:09:47.594304,14.30157009,.01164881,50.0055,3.9206,253.2883,105.5221,0,U,66004,999,3613,.46577938E-4,-.33E-6,0
SZ-21 MODULE,2025-246C,2026-06-25T12:18:58.478976,15.77090145,.0005109,41.4726,255.4449,55.4211,304.7115,0,U,66515,999,3505,.32091654E-3,.53995E-3,0
