H-2A R/B                
1 28932U 06002B   26176.42547455  .00008517  00000+0  40752-3 0  9991
2 28932  98.2568 333.0008 0049768 233.6316 126.0318 15.18160941110772
RESURS-DK 1             
1 29228U 06021A   26176.56259956  .00002331  00000+0  13686-3 0  9996
2 29228  69.9338 317.8730 0006755 287.9158  72.1271 15.13248953103842
CZ-4B R/B               
1 29507U 06046C   26176.55957456  .00004231  00000+0  20998-3 0  9997
2 29507  97.5452 221.1407 0031027 252.1488 107.6361 15.17839411 76408
CZ-2C R/B               
1 31114U 07010B   26176.30238785  .00000061  00000+0  47183-4 0  9999
2 31114  98.4104 284.2566 0058524 342.4914  17.4245 14.20277819994996
COSMO-SKYMED 1          
1 31598U 07023A   26176.55639000  .00003247  00000+0  28635-3 0  9990
2 31598  97.8861   8.4825 0001835  91.8658 268.2774 14.97143148 31044
COSMOS 2428             
1 31792U 07029A   26176.56840969 -.00000023  00000+0  13207-4 0  9991
2 31792  70.9371 336.8791 0007133 118.8785 241.3053 14.12927683979332
SL-16 R/B               
1 31793U 07029B   26176.59707201 -.00000186  00000+0 -71779-4 0  9995
2 31793  70.9772 305.5494 0002447 263.4243 176.3405 14.14855159980633
KORONAS-FOTON           
1 33504U 09003A   26176.49389218  .00013790  00000+0  28221-3 0  9990
2 33504  82.4286 163.5929 0012390 121.5165 238.7296 15.45880946962383
CZ-2C R/B               
1 37731U 11030B   26176.42589479  .00001205  00000+0  15714-3 0  9994
2 37731  97.8657 131.6633 0052334   1.4592 111.9802 14.81490093806045
H-2A R/B                
1 38341U 12025E   26176.51905518  .00002557  00000+0  23152-3 0  9999
2 38341  98.4823 152.3514 0043169 321.1468  38.6650 14.95752909764336
SHIJIAN-16 (SJ-16)      
1 39358U 13057A   26176.61778109  .00000755  00000+0  76071-4 0  9996
2 39358  74.9732 340.7149 0016586 211.1454 148.8753 14.92617010687608
SL-4 R/B                
1 39679U 14021B   26176.48872716  .00011250  00000+0  23172-3 0  9993
2 39679  51.6034 170.0969 0090842 136.1973 224.6264 15.42105744672891
ALOS-2                  
1 39766U 14029A   26176.59327537  .00000477  00000+0  70753-4 0  9993
2 39766  97.9220 273.6368 0001622  90.4924 269.6474 14.79468636652821
YAOGAN-29               
1 41038U 15069A   26176.61130565 -.00000045  00000+0  10749-5 0  9991
2 41038  98.0029 205.2575 0002208  40.1015 320.0361 14.83089731571872
ASTRO-H (HITOMI)        
1 41337U 16012A   26175.96383935  .00002333  00000+0  13226-3 0  9992
2 41337  31.0000  23.9627 0009740 331.2378  28.7723 15.10541885568466
HXMT (HUIYAN)           
1 42758U 17034A   26176.35654562  .00004412  00000+0  21864-3 0  9993
2 42758  43.0127 137.5487 0031815 199.1754 160.7899 15.18523714498901
SAOCOM 1A               
1 43641U 18076A   26176.57487478  .00000074  00000+0  15801-4 0  9991
2 43641  97.8888   3.2016 0001568  80.9417 279.1973 14.82153374417344
H-2A R/B                
1 43682U 18084L   26176.54614480  .00025995  00000+0  53890-3 0  9995
2 43682  98.8575  57.2640 0022536  12.0129 348.1648 15.45460413422414
SAOCOM 1B               
1 46265U 20059A   26176.60603990  .00000452  00000+0  63323-4 0  9995
2 46265  97.8891   2.3275 0001605  84.1674 275.9722 14.82151534314734
CSS (TIANHE)            
1 48274U 21035A   26176.55023086  .00028666  00000+0  33185-3 0  9997
2 48274  41.4688 271.0950 0007841 148.6919 211.4388 15.61164628294473
COSMOS 2550             
1 48865U 21056A   26176.56626978  .00006051  00000+0  18952-3 0  9995
2 48865  67.1437  74.5598 0008408 268.5199  91.4992 15.33844795280002
CZ-2C R/B               
1 52794U 22058K   26176.55785604  .00045105  00000+0  48844-3 0  9991
2 52794  50.1847 119.9442 0031966 302.2412  57.5465 15.62416323226952
CZ-2C R/B               
1 54039U 22132E   26176.55523088  .00077865  00000+0  57779-3 0  9999
2 54039  97.2895 183.9577 0014465  57.6860 302.5802 15.72498432207267
GSLV R/B                
1 54149U 22138AN  26176.40511343  .00003128  00000+0  26596-3 0  9996
2 54149  87.3806 130.2243 0023835 116.2977 244.0707 14.97290730200048
XRISM                   
1 57800U 23137A   26176.50584643  .00005024  00000+0  27565-3 0  9991
2 57800  31.0027 305.7147 0007796  47.4275 312.7021 15.12532699154122
ACS3                    
1 59588U 24077B   26176.52952076  .00017880  00000+0  12915-1 0  9995
2 59588  97.1683  93.4609 0092628  57.9988 303.0139 13.94556394109205
CZ-8A R/B               
1 66004U 25231K   26176.50680086 -.00000033  00000+0  46578-4 0  9994
2 66004  50.0055   3.9206 0116488 253.2883 105.5221 14.30157009 36131
SZ-21 MODULE            
1 66515U 25246C   26176.51317684  .00053995  00000+0  32092-3 0  9998
2 66515  41.4726 255.4449 0005109  55.4211 304.7115 15.77090145 35058
